{
  "type": "FeatureCollection",
  "features": [
    {
      "type": "Feature",
      "properties": {
        "norad_id": 66639,
        "name": "STARLINK-35908",
        "group": "last-30-days",
        "lat": 32.004911415547824,
        "lon": -130.25335200842576,
        "alt_km": 374.408357094796,
        "timestamp": "2025-12-09T16:56:35.360178+00:00",
        "meta_object_name": "STARLINK-35908",
        "meta_object_id": "2025-271Y",
        "meta_epoch": "2025-12-09T12:00:02.000160",
        "meta_mean_motion": 15.64059678,
        "meta_eccentricity": 8.05e-05,
        "meta_inclination": 53.159,
        "meta_ra_of_asc_node": 202.8103,
        "meta_arg_of_pericenter": 108.5827,
        "meta_mean_anomaly": 213.0748,
        "meta_ephemeris_type": 0,
        "meta_classification_type": "U",
        "meta_norad_cat_id": 66639,
        "meta_element_set_no": 999,
        "meta_rev_at_epoch": 372,
        "meta_bstar": -0.023333,
        "meta_mean_motion_dot": -0.01980495,
        "meta_mean_motion_ddot": 0,
        "tle_line1": "1 66639U 25271Y   25343.50002315 -.01980495  00000+0 -23333-1 0  9992",
        "tle_line2": "2 66639  53.1590 202.8103 0000805 108.5827 213.0748 15.64059678  3723"
      },
      "geometry": {
        "type": "Point",
        "coordinates": [
          -130.25335200842576,
          32.004911415547824
        ]
      }
    },
    {
      "type": "Feature",
      "properties": {
        "norad_id": 66640,
        "name": "STARLINK-35921",
        "group": "last-30-days",
        "lat": 33.35093171347632,
        "lon": -128.63254622982961,
        "alt_km": 374.1595691380835,
        "timestamp": "2025-12-09T16:56:35.360188+00:00",
        "meta_object_name": "STARLINK-35921",
        "meta_object_id": "2025-271Z",
        "meta_epoch": "2025-12-09T12:00:02.000160",
        "meta_mean_motion": 15.64051814,
        "meta_eccentricity": 8.4e-05,
        "meta_inclination": 53.159,
        "meta_ra_of_asc_node": 202.8061,
        "meta_arg_of_pericenter": 107.4946,
        "meta_mean_anomaly": 216.0837,
        "meta_ephemeris_type": 0,
        "meta_classification_type": "U",
        "meta_norad_cat_id": 66640,
        "meta_element_set_no": 999,
        "meta_rev_at_epoch": 372,
        "meta_bstar": -0.023202,
        "meta_mean_motion_dot": -0.01970229,
        "meta_mean_motion_ddot": 0,
        "tle_line1": "1 66640U 25271Z   25343.50002315 -.01970229  00000+0 -23202-1 0  9993",
        "tle_line2": "2 66640  53.1590 202.8061 0000840 107.4946 216.0837 15.64051814  3723"
      },
      "geometry": {
        "type": "Point",
        "coordinates": [
          -128.63254622982961,
          33.35093171347632
        ]
      }
    },
    {
      "type": "Feature",
      "properties": {
        "norad_id": 66641,
        "name": "STARLINK-35923",
        "group": "last-30-days",
        "lat": 38.49823757702669,
        "lon": -121.60862897707305,
        "alt_km": 373.29132233517703,
        "timestamp": "2025-12-09T16:56:35.360198+00:00",
        "meta_object_name": "STARLINK-35923",
        "meta_object_id": "2025-271AA",
        "meta_epoch": "2025-12-09T12:00:02.000160",
        "meta_mean_motion": 15.64053203,
        "meta_eccentricity": 8.04e-05,
        "meta_inclination": 53.1592,
        "meta_ra_of_asc_node": 202.7895,
        "meta_arg_of_pericenter": 109.3972,
        "meta_mean_anomaly": 221.8464,
        "meta_ephemeris_type": 0,
        "meta_classification_type": "U",
        "meta_norad_cat_id": 66641,
        "meta_element_set_no": 999,
        "meta_rev_at_epoch": 372,
        "meta_bstar": -0.023215,
        "meta_mean_motion_dot": -0.01971216,
        "meta_mean_motion_ddot": 0,
        "tle_line1": "1 66641U 25271AA  25343.50002315 -.01971216  00000+0 -23215-1 0  9995",
        "tle_line2": "2 66641  53.1592 202.7895 0000804 109.3972 221.8464 15.64053203  3724"
      },
      "geometry": {
        "type": "Point",
        "coordinates": [
          -121.60862897707305,
          38.49823757702669
        ]
      }
    },
    {
      "type": "Feature",
      "properties": {
        "norad_id": 66642,
        "name": "STARLINK-35926",
        "group": "last-30-days",
        "lat": 37.250315760117644,
        "lon": -123.45256032375612,
        "alt_km": 373.50366752290574,
        "timestamp": "2025-12-09T16:56:35.360209+00:00",
        "meta_object_name": "STARLINK-35926",
        "meta_object_id": "2025-271AB",
        "meta_epoch": "2025-12-09T12:00:02.000160",
        "meta_mean_motion": 15.64051521,
        "meta_eccentricity": 6.59e-05,
        "meta_inclination": 53.1591,
        "meta_ra_of_asc_node": 202.7944,
        "meta_arg_of_pericenter": 103.1663,
        "meta_mean_anomaly": 226.1586,
        "meta_ephemeris_type": 0,
        "meta_classification_type": "U",
        "meta_norad_cat_id": 66642,
        "meta_element_set_no": 999,
        "meta_rev_at_epoch": 348,
        "meta_bstar": -0.023161,
        "meta_mean_motion_dot": -0.01966992,
        "meta_mean_motion_ddot": 0,
        "tle_line1": "1 66642U 25271AB  25343.50002315 -.01966992  00000+0 -23161-1 0  9991",
        "tle_line2": "2 66642  53.1591 202.7944 0000659 103.1663 226.1586 15.64051521  3483"
      },
      "geometry": {
        "type": "Point",
        "coordinates": [
          -123.45256032375612,
          37.250315760117644
        ]
      }
    },
    {
      "type": "Feature",
      "properties": {
        "norad_id": 66643,
        "name": "STARLINK-35918",
        "group": "last-30-days",
        "lat": 34.674267961841736,
        "lon": -126.96191153618098,
        "alt_km": 373.9301615173017,
        "timestamp": "2025-12-09T16:56:35.360219+00:00",
        "meta_object_name": "STARLINK-35918",
        "meta_object_id": "2025-271AC",
        "meta_epoch": "2025-12-09T12:00:02.000160",
        "meta_mean_motion": 15.64050306,
        "meta_eccentricity": 8.61e-05,
        "meta_inclination": 53.1593,
        "meta_ra_of_asc_node": 202.8026,
        "meta_arg_of_pericenter": 108.4293,
        "meta_mean_anomaly": 217.0648,
        "meta_ephemeris_type": 0,
        "meta_classification_type": "U",
        "meta_norad_cat_id": 66643,
        "meta_element_set_no": 999,
        "meta_rev_at_epoch": 372,
        "meta_bstar": -0.02316,
        "meta_mean_motion_dot": -0.01966949,
        "meta_mean_motion_ddot": 0,
        "tle_line1": "1 66643U 25271AC  25343.50002315 -.01966949  00000+0 -23160-1 0  9993",
        "tle_line2": "2 66643  53.1593 202.8026 0000861 108.4293 217.0648 15.64050306  3725"
      },
      "geometry": {
        "type": "Point",
        "coordinates": [
          -126.96191153618098,
          34.674267961841736
        ]
      }
    },
    {
      "type": "Feature",
      "properties": {
        "norad_id": 66644,
        "name": "STARLINK-35938",
        "group": "last-30-days",
        "lat": 35.97591624270718,
        "lon": -125.23466330320137,
        "alt_km": 373.72264297419497,
        "timestamp": "2025-12-09T16:56:35.360229+00:00",
        "meta_object_name": "STARLINK-35938",
        "meta_object_id": "2025-271AD",
        "meta_epoch": "2025-12-09T12:00:02.000160",
        "meta_mean_motion": 15.64057013,
        "meta_eccentricity": 8.27e-05,
        "meta_inclination": 53.1589,
        "meta_ra_of_asc_node": 202.7983,
        "meta_arg_of_pericenter": 109.7679,
        "meta_mean_anomaly": 217.6413,
        "meta_ephemeris_type": 0,
        "meta_classification_type": "U",
        "meta_norad_cat_id": 66644,
        "meta_element_set_no": 999,
        "meta_rev_at_epoch": 372,
        "meta_bstar": -0.023294,
        "meta_mean_motion_dot": -0.01977417,
        "meta_mean_motion_ddot": 0,
        "tle_line1": "1 66644U 25271AD  25343.50002315 -.01977417  00000+0 -23294-1 0  9994",
        "tle_line2": "2 66644  53.1589 202.7983 0000827 109.7679 217.6413 15.64057013  3724"
      },
      "geometry": {
        "type": "Point",
        "coordinates": [
          -125.23466330320137,
          35.97591624270718
        ]
      }
    },
    {
      "type": "Feature",
      "properties": {
        "norad_id": 66645,
        "name": "SHENZHOU-22",
        "group": "last-30-days",
        "lat": 7.354028306789868,
        "lon": 43.52603205538469,
        "alt_km": 383.1818888001071,
        "timestamp": "2025-12-09T16:56:35.360240+00:00",
        "meta_object_name": "SHENZHOU-22",
        "meta_object_id": "2025-272A",
        "meta_epoch": "2025-12-09T04:35:44.551104",
        "meta_mean_motion": 15.58940873,
        "meta_eccentricity": 0.00089717,
        "meta_inclination": 41.468,
        "meta_ra_of_asc_node": 38.2458,
        "meta_arg_of_pericenter": 2.1097,
        "meta_mean_anomaly": 357.9778,
        "meta_ephemeris_type": 0,
        "meta_classification_type": "U",
        "meta_norad_cat_id": 66645,
        "meta_element_set_no": 999,
        "meta_rev_at_epoch": 26300,
        "meta_bstar": 0.00038224086,
        "meta_mean_motion_dot": 0.00030369,
        "meta_mean_motion_ddot": 0,
        "tle_line1": "1 66645U 25272A   25343.19148786  .00030369  00000+0  38224-3 0  9998",
        "tle_line2": "2 66645  41.4680  38.2458 0008971   2.1097 357.9778 15.58940873263003"
      },
      "geometry": {
        "type": "Point",
        "coordinates": [
          43.52603205538469,
          7.354028306789868
        ]
      }
    }
  ]
}